{
  "type": "FeatureCollection",
  "features": [
    {
      "type": "Feature",
      "properties": {
        "norad_id": 50032,
        "name": "COSMOS 1408 DEB",
        "group": "cosmos-1408-debris",
        "lat": 81.64243254405952,
        "lon": -176.1871807093521,
        "alt_km": 430.51949500470346,
        "timestamp": "2025-12-04T21:36:16.143460+00:00",
        "meta_object_name": "COSMOS 1408 DEB",
        "meta_object_id": "1982-092RU",
        "meta_epoch": "2025-12-04T13:25:47.517600",
        "meta_mean_motion": 15.45566014,
        "meta_eccentricity": 0.00147279,
        "meta_inclination": 82.5655,
        "meta_ra_of_asc_node": 66.892,
        "meta_arg_of_pericenter": 240.5821,
        "meta_mean_anomaly": 119.3958,
        "meta_ephemeris_type": 0,
        "meta_classification_type": "U",
        "meta_norad_cat_id": 50032,
        "meta_element_set_no": 999,
        "meta_rev_at_epoch": 22477,
        "meta_bstar": 0.00020793101,
        "meta_mean_motion_dot": 0.00010071,
        "meta_mean_motion_ddot": 0,
        "tle_line1": "1 50032U 82092RU  25338.55957775  .00010071  00000+0  20793-3 0  9994",
        "tle_line2": "2 50032  82.5655  66.8920 0014727 240.5821 119.3958 15.45566014224772"
      },
      "geometry": {
        "type": "Point",
        "coordinates": [
          -176.1871807093521,
          81.64243254405952
        ]
      }
    },
    {
      "type": "Feature",
      "properties": {
        "norad_id": 50058,
        "name": "COSMOS 1408 DEB",
        "group": "cosmos-1408-debris",
        "lat": 34.37251310090606,
        "lon": -107.54883073901244,
        "alt_km": 365.2608992427904,
        "timestamp": "2025-12-04T21:36:16.143480+00:00",
        "meta_object_name": "COSMOS 1408 DEB",
        "meta_object_id": "1982-092SW",
        "meta_epoch": "2025-12-04T07:09:39.475584",
        "meta_mean_motion": 15.63350029,
        "meta_eccentricity": 0.00162609,
        "meta_inclination": 82.6139,
        "meta_ra_of_asc_node": 78.171,
        "meta_arg_of_pericenter": 128.8171,
        "meta_mean_anomaly": 231.4543,
        "meta_ephemeris_type": 0,
        "meta_classification_type": "U",
        "meta_norad_cat_id": 50058,
        "meta_element_set_no": 999,
        "meta_rev_at_epoch": 22672,
        "meta_bstar": 0.00063988706,
        "meta_mean_motion_dot": 0.00059517,
        "meta_mean_motion_ddot": 0,
        "tle_line1": "1 50058U 82092SW  25338.29837356  .00059517  00000+0  63989-3 0  9997",
        "tle_line2": "2 50058  82.6139  78.1710 0016260 128.8171 231.4543 15.63350029226721"
      },
      "geometry": {
        "type": "Point",
        "coordinates": [
          -107.54883073901244,
          34.37251310090606
        ]
      }
    },
    {
      "type": "Feature",
      "properties": {
        "norad_id": 50404,
        "name": "COSMOS 1408 DEB",
        "group": "cosmos-1408-debris",
        "lat": -65.61525426796955,
        "lon": 60.63437108048413,
        "alt_km": 423.11955200474404,
        "timestamp": "2025-12-04T21:36:16.143494+00:00",
        "meta_object_name": "COSMOS 1408 DEB",
        "meta_object_id": "1982-092ADS",
        "meta_epoch": "2025-12-04T03:02:32.219520",
        "meta_mean_motion": 15.11972911,
        "meta_eccentricity": 0.01759389,
        "meta_inclination": 82.207,
        "meta_ra_of_asc_node": 223.8385,
        "meta_arg_of_pericenter": 228.6918,
        "meta_mean_anomaly": 129.9057,
        "meta_ephemeris_type": 0,
        "meta_classification_type": "U",
        "meta_norad_cat_id": 50404,
        "meta_element_set_no": 999,
        "meta_rev_at_epoch": 21063,
        "meta_bstar": 0.0052613218,
        "meta_mean_motion_dot": 0.00133611,
        "meta_mean_motion_ddot": 0,
        "tle_line1": "1 50404U 82092ADS 25338.12676180  .00133611  00000+0  52613-2 0  9999",
        "tle_line2": "2 50404  82.2070 223.8385 0175938 228.6918 129.9057 15.11972911210636"
      },
      "geometry": {
        "type": "Point",
        "coordinates": [
          60.63437108048413,
          -65.61525426796955
        ]
      }
    },
    {
      "type": "Feature",
      "properties": {
        "norad_id": 50621,
        "name": "COSMOS 1408 DEB",
        "group": "cosmos-1408-debris",
        "lat": 9.671534866097087,
        "lon": 83.61175916150427,
        "alt_km": 420.20671441743707,
        "timestamp": "2025-12-04T21:36:16.143505+00:00",
        "meta_object_name": "COSMOS 1408 DEB",
        "meta_object_id": "1982-092ALR",
        "meta_epoch": "2025-12-04T07:40:18.152256",
        "meta_mean_motion": 15.55994248,
        "meta_eccentricity": 0.00288655,
        "meta_inclination": 82.5706,
        "meta_ra_of_asc_node": 82.9412,
        "meta_arg_of_pericenter": 183.2784,
        "meta_mean_anomaly": 176.8286,
        "meta_ephemeris_type": 0,
        "meta_classification_type": "U",
        "meta_norad_cat_id": 50621,
        "meta_element_set_no": 999,
        "meta_rev_at_epoch": 22119,
        "meta_bstar": 0.0007370431,
        "meta_mean_motion_dot": 0.00052478,
        "meta_mean_motion_ddot": 0,
        "tle_line1": "1 50621U 82092ALR 25338.31965454  .00052478  00000+0  73704-3 0  9992",
        "tle_line2": "2 50621  82.5706  82.9412 0028865 183.2784 176.8286 15.55994248221197"
      },
      "geometry": {
        "type": "Point",
        "coordinates": [
          83.61175916150427,
          9.671534866097087
        ]
      }
    }
  ]
}